norad_id,name,regime,epoch,line1,line2,inclination,eccentricity,mean_motion,raan,arg_pericenter,mean_anomaly
40349,O3B FM11,MEO,19200.35449307,1 40349U 14083B   19200.35449307 -.00000028 +00000-0 +00000-0 0 0001,2 40349 000.0490 004.7692 0002145 099.0738 256.1779 05.0011599808374,0.049,0.0002145,5.00115998,4.7692,99.0738,256.1779
40349,O3B FM11,MEO,19201.55383560,1 40349U 14083B   19201.55383560 -.00000026 +00000-0 +00000-0 0 0001,2 40349 000.0490 004.6284 0002144 099.8976 255.4952 05.0011601108380,0.049,0.0002144,5.00116011,4.6284,99.8976,255.4952
40349,O3B FM11,MEO,19201.75372612,1 40349U 14083B   19201.75372612 -.00000026 +00000-0 +00000-0 0 0001,2 40349 000.0490 004.6030 0002143 100.1095 255.3089 05.0011600508381,0.049,0.0002143,5.00116005,4.603,100.1095,255.3089
40349,O3B FM11,MEO,19203.55274013,1 40349U 14083B   19203.55274013 -.00000022  00000-0  00000+0 0  3604,2 40349   0.0490   4.3072 0002137 101.9485 253.7661  5.00116002 83907,0.049,0.0002137,5.00116002,4.3072,101.9485,253.7661
40349,O3B FM11,MEO,19204.35230203,1 40349U 14083B   19204.35230203 -.00000021 +00000-0 +00000-0 0 0001,2 40349 000.0490 004.2297 0002128 103.1968 252.5956 05.0011598708394,0.049,0.0002128,5.00115987,4.2297,103.1968,252.5956
40349,O3B FM11,MEO,19205.75153556,1 40349U 14083B   19205.75153556 -.00000018 +00000-0 +00000-0 0 0001,2 40349 000.0490 004.0551 0002119 104.8756 251.0917 05.0011594408401,0.049,0.0002119,5.00115944,4.0551,104.8756,251.0917
40349,O3B FM11,MEO,19206.55109747,1 40349U 14083B   19206.55109747 -.00000017 +00000-0 +00000-0 0 0001,2 40349 000.0490 004.0042 0002112 106.0372 249.9811 05.0011592008405,0.049,0.0002112,5.0011592,4.0042,106.0372,249.9811
40349,O3B FM11,MEO,19207.55054950,1 40349U 14083B   19207.55054950 -.00000016 +00000-0 +00000-0 0 0001,2 40349 000.0490 003.8493 0002109 107.1561 249.0172 05.0011592208410,0.049,0.0002109,5.00115922,3.8493,107.1561,249.0172
40349,O3B FM11,MEO,19208.35011106,1 40349U 14083B   19208.35011106 -.00000016 +00000-0 +00000-0 0 0361,2 40349 000.0490 003.7755 0002106 107.8979 248.3492 05.0011591908414,0.049,0.0002106,5.00115919,3.7755,107.8979,248.3492
40349,O3B FM11,MEO,19209.74934382,1 40349U 14083B   19209.74934382 -.00000016 +00000-0 +00000-0 0 0001,2 40349 000.0491 003.6444 0002101 109.5199 246.8577 05.0011590108421,0.0491,0.0002101,5.00115901,3.6444,109.5199,246.8577
40349,O3B FM11,MEO,19210.74879548,1 40349U 14083B   19210.74879548 -.00000016 +00000-0 +00000-0 0 0001,2 40349 000.0491 003.5509 0002094 111.6929 244.7774 05.0011589108426,0.0491,0.0002094,5.00115891,3.5509,111.6929,244.7774
40349,O3B FM11,MEO,19211.54835718,1 40349U 14083B   19211.54835718 -.00000017 +00000-0 +00000-0 0 0001,2 40349 000.0490 003.4937 0002089 112.4961 244.0308 05.0011586108430,0.049,0.0002089,5.00115861,3.4937,112.4961,244.0308
40349,O3B FM11,MEO,19212.54780895,1 40349U 14083B   19212.54780895 -.00000019  00000-0  00000+0 0  3621,2 40349   0.0490   3.4244 0002086 113.2917 243.3039  5.00115858 84359,0.049,0.0002086,5.00115858,3.4244,113.2917,243.3039
40349,O3B FM11,MEO,19213.34737048,1 40349U 14083B   19213.34737048 -.00000020 +00000-0 +00000-0 0 0001,2 40349 000.0490 003.3578 0002083 114.2171 242.4445 05.0011584508439,0.049,0.0002083,5.00115845,3.3578,114.2171,242.4445
40349,O3B FM11,MEO,19214.54671257,1 40349U 14083B   19214.54671257 -.00000021 +00000-0 +00000-0 0 0001,2 40349 000.0490 003.2531 0002072 116.0043 240.7610 05.0011584208445,0.049,0.0002072,5.00115842,3.2531,116.0043,240.761
40349,O3B FM11,MEO,19215.54616426,1 40349U 14083B   19215.54616426 -.00000022 +00000-0 +00000-0 0 0001,2 40349 000.0490 003.1518 0002067 117.2409 239.6251 05.0011585908450,0.049,0.0002067,5.00115859,3.1518,117.2409,239.6251
40349,O3B FM11,MEO,19215.74605464,1 40349U 14083B   19215.74605464 -.00000023 +00000-0 +00000-0 0 0001,2 40349 000.0490 003.1277 0002067 117.4660 239.4240 05.0011586008451,0.049,0.0002067,5.0011586,3.1277,117.466,239.424
40349,O3B FM11,MEO,19218.34462975,1 40349U 14083B   19218.34462975 -.00000025  00000-0  00000+0 0  3639,2 40349   0.0490   2.8034 0002065 120.1392 237.0743  5.00115888 84647,0.049,0.0002065,5.00115888,2.8034,120.1392,237.0743
40349,O3B FM11,MEO,19219.54397252,1 40349U 14083B   19219.54397252 -.00000027 +00000-0 +00000-0 0 0001,2 40349 000.0490 002.7307 0002068 120.9695 236.3166 05.0011588008470,0.049,0.0002068,5.0011588,2.7307,120.9695,236.3166
40349,O3B FM11,MEO,19220.54342442,1 40349U 14083B   19220.54342442 -.00000028 +00000-0 +00000-0 0 0001,2 40349 000.0491 002.6329 0002063 122.2502 235.1333 05.0011590108475,0.0491,0.0002063,5.00115901,2.6329,122.2502,235.1333
40349,O3B FM11,MEO,19221.74276682,1 40349U 14083B   19221.74276682 -.00000030 +00000-0 +00000-0 0 0001,2 40349 000.0491 002.4358 0002061 123.5343 234.0460 05.0011591608480,0.0491,0.0002061,5.00115916,2.4358,123.5343,234.046
40349,O3B FM11,MEO,19222.74221881,1 40349U 14083B   19222.74221881 -.00000031  00000-0  00000+0 0  3645,2 40349   0.0491   2.3510 0002058 124.6467 233.0180  5.00115928 84866,0.0491,0.0002058,5.00115928,2.351,124.6467,233.018
40349,O3B FM11,MEO,19222.74221882,1 40349U 14083B   19222.74221882 -.00000031 +00000-0 +00000-0 0 0001,2 40349 000.0491 002.4034 0002058 124.6444 232.9679 05.0011592808486,0.0491,0.0002058,5.00115928,2.4034,124.6444,232.9679
40349,O3B FM11,MEO,19224.74112282,1 40349U 14083B   19224.74112282 -.00000033 +00000-0 +00000-0 0 0001,2 40349 000.0491 002.1979 0002049 126.7065 231.1107 05.0011595008495,0.0491,0.0002049,5.0011595,2.1979,126.7065,231.1107
40349,O3B FM11,MEO,19225.74057479,1 40349U 14083B   19225.74057479 -.00000033 +00000-0 +00000-0 0 0001,2 40349 000.0491 002.1579 0002045 127.8547 230.0022 05.0011596708501,0.0491,0.0002045,5.00115967,2.1579,127.8547,230.0022
40349,O3B FM11,MEO,19226.74002685,1 40349U 14083B   19226.74002685 -.00000032 +00000-0 +00000-0 0 0001,2 40349 000.0490 002.0424 0002043 128.9447 229.0277 05.0011597508506,0.049,0.0002043,5.00115975,2.0424,128.9447,229.0277
40349,O3B FM11,MEO,19227.73947884,1 40349U 14083B   19227.73947884 -.00000031  00000-0  00000+0 0  3658,2 40349   0.0490   1.9954 0002034 130.5000 227.5192  5.00115985 85118,0.049,0.0002034,5.00115985,1.9954,130.5,227.5192
40349,O3B FM11,MEO,19228.73893110,1 40349U 14083B   19228.73893110 -.00000029 +00000-0 +00000-0 0 0001,2 40349 000.0490 001.9064 0002033 131.4422 226.6662 05.0011598408516,0.049,0.0002033,5.00115984,1.9064,131.4422,226.6662
40349,O3B FM11,MEO,19229.53849265,1 40349U 14083B   19229.53849265 -.00000028 +00000-0 +00000-0 0 0001,2 40349 000.0491 001.8432 0002031 132.2011 225.9707 05.0011600308520,0.0491,0.0002031,5.00116003,1.8432,132.2011,225.9707
40349,O3B FM11,MEO,19229.93827353,1 40349U 14083B   19229.93827353 -.00000027 +00000-0 +00000-0 0 0001,2 40349 000.0491 001.8075 0002029 132.6516 225.5560 05.0011600308522,0.0491,0.0002029,5.00116003,1.8075,132.6516,225.556
40349,O3B FM11,MEO,19233.33641133,1 40349U 14083B   19233.33641133 -.00000020  00000-0  00000+0 0  3668,2 40349   0.0491   1.4762 0002009 137.1125 221.4270  5.00115953 85399,0.0491,0.0002009,5.00115953,1.4762,137.1125,221.427
40349,O3B FM11,MEO,19233.73619215,1 40349U 14083B   19233.73619215 -.00000020 +00000-0 +00000-0 0 0001,2 40349 000.0491 001.4603 0002007 137.5993 220.9561 05.0011595208541,0.0491,0.0002007,5.00115952,1.4603,137.5993,220.9561
40349,O3B FM11,MEO,19234.73564457,1 40349U 14083B   19234.73564457 -.00000019 +00000-0 +00000-0 0 0001,2 40349 000.0491 001.4025 0002002 138.6793 219.9340 05.0011591708546,0.0491,0.0002002,5.00115917,1.4025,138.6793,219.934
40349,O3B FM11,MEO,19235.73509660,1 40349U 14083B   19235.73509660 -.00000018 +00000-0 +00000-0 0 0001,2 40349 000.0491 001.3584 0001998 139.7733 218.8838 05.0011590708551,0.0491,0.0001998,5.00115907,1.3584,139.7733,218.8838
40349,O3B FM11,MEO,19236.73454840,1 40349U 14083B   19236.73454840 -.00000018 +00000-0 +00000-0 0 0001,2 40349 000.0491 001.3242 0001995 140.8033 217.8878 05.0011590808556,0.0491,0.0001995,5.00115908,1.3242,140.8033,217.8878
40349,O3B FM11,MEO,19237.73400031,1 40349U 14083B   19237.73400031 -.00000018  00000-0  00000+0 0  3674,2 40349   0.0490   1.2393 0001991 142.0287 216.7467  5.00115892 85611,0.049,0.0001991,5.00115892,1.2393,142.0287,216.7467
40349,O3B FM11,MEO,19237.73400032,1 40349U 14083B   19237.73400032 -.00000018 +00000-0 +00000-0 0 0001,2 40349 000.0491 001.2931 0001991 142.0138 216.7078 05.0011588908561,0.0491,0.0001991,5.00115889,1.2931,142.0138,216.7078
40349,O3B FM11,MEO,19238.73345216,1 40349U 14083B   19238.73345216 -.00000019 +00000-0 +00000-0 0 0001,2 40349 000.0490 001.2709 0001987 143.1464 215.5967 05.0011587408566,0.049,0.0001987,5.00115874,1.2709,143.1464,215.5967
40349,O3B FM11,MEO,19239.53301365,1 40349U 14083B   19239.53301365 -.00000020 +00000-0 +00000-0 0 0001,2 40349 000.0490 001.2630 0001985 143.8701 214.8803 05.0011586208570,0.049,0.0001985,5.00115862,1.263,143.8701,214.8803
40349,O3B FM11,MEO,19240.73235556,1 40349U 14083B   19240.73235556 -.00000022 +00000-0 +00000-0 0 0001,2 40349 000.0490 001.2348 0001981 145.4902 213.2873 05.0011586408576,0.049,0.0001981,5.00115864,1.2348,145.4902,213.2873
40349,O3B FM11,MEO,19241.73180746,1 40349U 14083B   19241.73180746 -.00000023 +00000-0 +00000-0 0 0001,2 40349 000.0490 001.2041 0001975 146.7199 212.0877 05.0011584908581,0.049,0.0001975,5.00115849,1.2041,146.7199,212.0877
40349,O3B FM11,MEO,19241.93169781,1 40349U 14083B   19241.93169781 -.00000023  00000-0  00000+0 0  3682,2 40349   0.0490   1.1970 0001975 146.9536 211.8608  5.00115850 85823,0.049,0.0001975,5.0011585,1.197,146.9536,211.8608
40349,O3B FM11,MEO,19242.73125927,1 40349U 14083B   19242.73125927 -.00000024 +00000-0 +00000-0 0 0001,2 40349 000.0489 001.1662 0001973 147.7687 211.0761 05.0011585408586,0.0489,0.0001973,5.00115854,1.1662,147.7687,211.0761
40349,O3B FM11,MEO,19243.53082086,1 40349U 14083B   19243.53082086 -.00000025 +00000-0 +00000-0 0 0001,2 40349 000.0489 001.1372 0001971 148.7717 210.1017 05.0011585008590,0.0489,0.0001971,5.0011585,1.1372,148.7717,210.1017
